IRIDIUM 26              
1 24903U 97043A   26001.12226664  .00000718  00000+0  23408-3 0  9994
2 24903  86.3944  27.4134 0002325  95.6820 264.4642 14.37345486485175
IRIDIUM 22              
1 24907U 97043E   26001.14720338  .00000589  00000+0  19553-3 0  9999
2 24907  86.3946  31.1129 0002318  90.8917 269.2545 14.36137110485181
DUMMY MASS 1            
1 24925U 97048A   26001.18392099  .00000676  00000+0  71984-4 0  9991
2 24925  86.3326  43.7058 0007605 146.6967 213.4738 14.87201536534553
DUMMY MASS 2            
1 24926U 97048B   26001.17915438  .00000683  00000+0  73228-4 0  9990
2 24926  86.3326  45.3525 0007910 158.7632 201.3923 14.86952026534326
IRIDIUM 29              
1 24944U 97051A   26001.16765539  .00000636  00000+0  20943-3 0  9991
2 24944  86.3935  60.7845 0002171  89.1010 271.0436 14.36680450481697
IRIDIUM 33              
1 24946U 97051C   26001.16073133  .00000542  00000+0  18331-3 0  9999
2 24946  86.3851  60.0678 0009168 140.3468 219.8400 14.35052699481130
IRIDIUM 28              
1 24948U 97051E   26001.15571976  .00000650  00000+0  21048-3 0  9997
2 24948  86.3940  58.1921 0002546 104.5860 255.5621 14.37580650482285
IRIDIUM 36              
1 24967U 97056C   26001.15781528  .00000738  00000+0  23871-3 0  9992
2 24967  86.3959  89.8203 0002392  97.0066 263.1404 14.37804449480662
